CCSDS_OMM_VERS,COMMENT,CREATION_DATE,ORIGINATOR,OBJECT_NAME,OBJECT_ID,CENTER_NAME,REF_FRAME,TIME_SYSTEM,MEAN_ELEMENT_THEORY,EPOCH,MEAN_MOTION,ECCENTRICITY,INCLINATION,RA_OF_ASC_NODE,ARG_OF_PERICENTER,MEAN_ANOMALY,EPHEMERIS_TYPE,CLASSIFICATION_TYPE,NORAD_CAT_ID,ELEMENT_SET_NO,REV_AT_EPOCH,BSTAR,MEAN_MOTION_DOT,MEAN_MOTION_DDOT,SEMIMAJOR_AXIS,PERIOD,APOAPSIS,PERIAPSIS,OBJECT_TYPE,RCS_SIZE,COUNTRY_CODE,LAUNCH_DATE,SITE,DECAY_DATE,FILE,GP_ID,TLE_LINE0,TLE_LINE1,TLE_LINE2
"2.0","GENERATED VIA SPACE-TRACK.ORG API","2020-10-06T03:18:37","18 SPCS","ORBCOMM FM 30","1999-065A","EARTH","TEME","UTC","SGP4","2020-10-05T22:34:56.541216","14.32916543","0.00036290","45.0322","248.2974","91.6903","268.4360","0","U","25980","999","8820","0.00008016100000","0.00000080","0.0000000000000","7160.135","100.494","784.598","779.402","PAYLOAD","MEDIUM","ORB","1999-12-04","AFETR","","2843543","162846980","0 ORBCOMM FM 30","1 25980U 99065A   20279.94093219 +.00000080 +00000-0 +80161-4 0  9998","2 25980 045.0322 248.2974 0003629 091.6903 268.4360 14.32916543088201"
"2.0","GENERATED VIA SPACE-TRACK.ORG API","2020-10-06T03:18:37","18 SPCS","CZ-4 DEB","1999-057SK","EARTH","TEME","UTC","SGP4","2020-10-05T21:29:03.156288","14.46970006","0.01152750","98.7008","297.5185","213.5118","267.6139","0","U","35331","999","35537","0.00015076000000","0.00000542","0.0000000000000","7113.699","99.518","817.567","653.560","DEBRIS","SMALL","PRC","1999-10-14","TSC","","2843543","162852920","0 CZ-4 DEB","1 35331U 99057SK  20279.89517542 +.00000542 +00000-0 +15076-3 0  9999","2 35331 098.7008 297.5185 0115275 213.5118 267.6139 14.46970006355372"
"2.0","GENERATED VIA SPACE-TRACK.ORG API","2020-10-05T22:26:11","18 SPCS","ORBCOMM FM 30","1999-065A","EARTH","TEME","UTC","SGP4","2020-10-05T19:14:08.833632","14.32916430","0.00036300","45.0321","248.9527","91.2925","268.8338","0","U","25980","999","8871","0.00007730900000","0.00000072","0.0000000000000","7160.135","100.494","784.600","779.401","PAYLOAD","MEDIUM","ORB","1999-12-04","AFETR","","2843394","162836475","0 ORBCOMM FM 30","1 25980U 99065A   20279.80149113  .00000072  00000-0  77309-4 0  9999","2 25980  45.0321 248.9527 0003630  91.2925 268.8338 14.32916430 88713"
"2.0","GENERATED VIA SPACE-TRACK.ORG API","2020-10-05T16:37:24","18 SPCS","ORBCOMM FM 30","1999-065A","EARTH","TEME","UTC","SGP4","2020-10-05T09:11:45.713472","14.32916256","0.00036320","45.0321","250.9187","88.8022","271.3240","0","U","25980","999","8812","0.00007726000000","0.00000072","0.0000000000000","7160.136","100.494","784.602","779.400","PAYLOAD","MEDIUM","ORB","1999-12-04","AFETR","","2843286","162822563","0 ORBCOMM FM 30","1 25980U 99065A   20279.38316798 +.00000072 +00000-0 +77260-4 0  9993","2 25980 045.0321 250.9187 0003632 088.8022 271.3240 14.32916256088122"
"2.0","GENERATED VIA SPACE-TRACK.ORG API","2020-10-05T16:37:24","18 SPCS","CZ-4 DEB","1999-057SK","EARTH","TEME","UTC","SGP4","2020-10-05T07:41:33.177696","14.46969275","0.01152320","98.7008","296.9279","215.2442","154.1945","0","U","35331","999","35529","0.00015090000000","0.00000543","0.0000000000000","7113.701","99.518","817.539","653.593","DEBRIS","SMALL","PRC","1999-10-14","TSC","","2843286","162827763","0 CZ-4 DEB","1 35331U 99057SK  20279.32052289 +.00000543 +00000-0 +15090-3 0  9996","2 35331 098.7008 296.9279 0115232 215.2442 154.1945 14.46969275355293"
"2.0","GENERATED VIA SPACE-TRACK.ORG API","2020-10-05T02:15:51","18 SPCS","ORBCOMM FM 30","1999-065A","EARTH","TEME","UTC","SGP4","2020-10-04T21:28:58.736928","14.32915986","0.00036230","45.0321","253.2124","85.8083","274.3177","0","U","25980","999","8805","0.00007451900000","0.00000065","0.0000000000000","7160.137","100.494","784.596","779.408","PAYLOAD","MEDIUM","ORB","1999-12-04","AFETR","","2842655","162766003","0 ORBCOMM FM 30","1 25980U 99065A   20278.89512427 +.00000065 +00000-0 +74519-4 0  9991","2 25980 045.0321 253.2124 0003623 085.8083 274.3177 14.32915986088056"
"2.0","GENERATED VIA SPACE-TRACK.ORG API","2020-10-04T14:36:09","18 SPCS","ORBCOMM FM 30","1999-065A","EARTH","TEME","UTC","SGP4","2020-10-04T09:46:11.746560","14.32915806","0.00036230","45.0321","255.5061","82.9864","277.1394","0","U","25980","999","8851","0.00007435700000","0.00000064","0.0000000000000","7160.137","100.494","784.597","779.408","PAYLOAD","MEDIUM","ORB","1999-12-04","AFETR","","2842006","162723738","0 ORBCOMM FM 30","1 25980U 99065A   20278.40708040  .00000064  00000-0  74357-4 0  9995","2 25980  45.0321 255.5061 0003623  82.9864 277.1394 14.32915806 88510"
"2.0","GENERATED VIA SPACE-TRACK.ORG API","2020-10-04T14:26:10","18 SPCS","CZ-4 DEB","1999-057SK","EARTH","TEME","UTC","SGP4","2020-10-04T06:48:10.835136","14.46968044","0.01151680","98.7009","295.8622","218.3801","152.0233","0","U","35331","999","93291","0.00015702000000","0.00000567","0.0000000000000","7113.705","99.518","817.497","653.643","DEBRIS","SMALL","PRC","1999-10-14","TSC","","2841944","162722526","0 CZ-4 DEB","1 35331U 99057SK  20278.28345874  .00000567  00000-0  15702-3 0  9991","2 35331  98.7009 295.8622 0115168 218.3801 152.0233 14.46968044932915"
"2.0","GENERATED VIA SPACE-TRACK.ORG API","2020-10-04T03:06:29","18 SPCS","ORBCOMM FM 30","1999-065A","EARTH","TEME","UTC","SGP4","2020-10-03T22:03:24.743232","14.32915658","0.00036150","45.0320","257.7996","80.0566","280.0689","0","U","25980","999","8791","0.00007645700000","0.00000070","0.0000000000000","7160.138","100.494","784.591","779.415","PAYLOAD","MEDIUM","ORB","1999-12-04","AFETR","","2841547","162698648","0 ORBCOMM FM 30","1 25980U 99065A   20277.91903638 +.00000070 +00000-0 +76457-4 0  9990","2 25980 045.0320 257.7996 0003615 080.0566 280.0689 14.32915658087917"
"2.0","GENERATED VIA SPACE-TRACK.ORG API","2020-10-03T14:26:10","18 SPCS","ORBCOMM FM 30","1999-065A","EARTH","TEME","UTC","SGP4","2020-10-03T08:40:13.882656","14.32915460","0.00036250","45.0320","260.4211","76.7803","283.3448","0","U","25980","999","8836","0.00007613200000","0.00000069","0.0000000000000","7160.139","100.494","784.599","779.408","PAYLOAD","MEDIUM","ORB","1999-12-04","AFETR","","2841080","162661695","0 ORBCOMM FM 30","1 25980U 99065A   20277.36127179  .00000069  00000-0  76132-4 0  9995","2 25980  45.0320 260.4211 0003625  76.7803 283.3448 14.32915460 88365"
"2.0","GENERATED VIA SPACE-TRACK.ORG API","2020-10-02T16:51:42","18 SPCS","ORBCOMM FM 30","1999-065A","EARTH","TEME","UTC","SGP4","2020-10-02T07:34:15.981600","14.32915150","0.00036350","45.0321","265.3360","70.5377","289.5862","0","U","25980","999","8768","0.00007941100000","0.00000078","0.0000000000000","7160.140","100.494","784.607","779.402","PAYLOAD","MEDIUM","ORB","1999-12-04","AFETR","","2840178","162611002","0 ORBCOMM FM 30","1 25980U 99065A   20276.31546275 +.00000078 +00000-0 +79411-4 0  9994","2 25980 045.0321 265.3360 0003635 070.5377 289.5862 14.32915150087682"
"2.0","GENERATED VIA SPACE-TRACK.ORG API","2020-10-02T02:09:23","18 SPCS","ORBCOMM FM 30","1999-065A","EARTH","TEME","UTC","SGP4","2020-10-01T16:30:41.229216","14.32914894","0.00036420","45.0322","268.2850","66.7649","293.3581","0","U","25980","999","8759","0.00007822400000","0.00000075","0.0000000000000","7160.141","100.494","784.613","779.398","PAYLOAD","MEDIUM","ORB","1999-12-04","AFETR","","2839626","162576617","0 ORBCOMM FM 30","1 25980U 99065A   20275.68797719 +.00000075 +00000-0 +78224-4 0  9992","2 25980 045.0322 268.2850 0003642 066.7649 293.3581 14.32914894087591"
"2.0","GENERATED VIA SPACE-TRACK.ORG API","2020-10-01T17:48:54","18 SPCS","ORBCOMM FM 30","1999-065A","EARTH","TEME","UTC","SGP4","2020-10-01T09:49:05.782944","14.32914795","0.00036520","45.0322","269.5957","65.1857","294.9369","0","U","25980","999","8755","0.00008045100000","0.00000081","0.0000000000000","7160.141","100.494","784.621","779.391","PAYLOAD","MEDIUM","ORB","1999-12-04","AFETR","","2839403","162551469","0 ORBCOMM FM 30","1 25980U 99065A   20275.40909471 +.00000081 +00000-0 +80451-4 0  9994","2 25980 045.0322 269.5957 0003652 065.1857 294.9369 14.32914795087555"
"2.0","GENERATED VIA SPACE-TRACK.ORG API","2020-10-01T01:26:10","18 SPCS","ORBCOMM FM 30","1999-065A","EARTH","TEME","UTC","SGP4","2020-09-30T23:46:42.602304","14.32914627","0.00036570","45.0322","271.5616","62.7099","297.4120","0","U","25980","999","8802","0.00008187800000","0.00000085","0.0000000000000","7160.141","100.494","784.625","779.388","PAYLOAD","MEDIUM","ORB","1999-12-04","AFETR","","2838354","162499578","0 ORBCOMM FM 30","1 25980U 99065A   20274.99077086  .00000085  00000-0  81878-4 0  9993","2 25980  45.0322 271.5616 0003657  62.7099 297.4120 14.32914627 88026"
"2.0","GENERATED VIA SPACE-TRACK.ORG API","2020-10-01T01:40:27","18 SPCS","ORBCOMM FM 30","1999-065A","EARTH","TEME","UTC","SGP4","2020-09-30T17:05:07.149120","14.32914513","0.00036680","45.0323","272.8724","61.1091","299.0123","0","U","25980","999","8745","0.00008196600000","0.00000085","0.0000000000000","7160.142","100.494","784.633","779.380","PAYLOAD","MEDIUM","ORB","1999-12-04","AFETR","","2838446","162506853","0 ORBCOMM FM 30","1 25980U 99065A   20274.71188830 +.00000085 +00000-0 +81966-4 0  9991","2 25980 045.0323 272.8724 0003668 061.1091 299.0123 14.32914513087459"
"2.0","GENERATED VIA SPACE-TRACK.ORG API","2020-09-30T19:42:07","18 SPCS","ORBCOMM FM 30","1999-065A","EARTH","TEME","UTC","SGP4","2020-09-30T10:23:31.695936","14.32914392","0.00036800","45.0322","274.1831","59.5393","300.5817","0","U","25980","999","8741","0.00008420300000","0.00000091","0.0000000000000","7160.142","100.494","784.642","779.372","PAYLOAD","MEDIUM","ORB","1999-12-04","AFETR","","2838070","162480730","0 ORBCOMM FM 30","1 25980U 99065A   20274.43300574 +.00000091 +00000-0 +84203-4 0  9995","2 25980 045.0322 274.1831 0003680 059.5393 300.5817 14.32914392087411"
